OBJECT_NAME,OBJECT_ID,EPOCH,MEAN_MOTION,ECCENTRICITY,INCLINATION,RA_OF_ASC_NODE,ARG_OF_PERICENTER,MEAN_ANOMALY,EPHEMERIS_TYPE,CLASSIFICATION_TYPE,NORAD_CAT_ID,ELEMENT_SET_NO,REV_AT_EPOCH,BSTAR,MEAN_MOTION_DOT,MEAN_MOTION_DDOT
STARLINK-35605,2025-240E,2026-06-11T18:37:34.361760,15.30198131,.0000795,53.1613,345.7793,104.5575,255.5514,0,U,66150,999,3639,.9495E-3,.27866E-3,0
STARLINK-35540,2025-240F,2026-06-11T18:48:48.841632,15.34401080,.0001145,53.1597,344.4114,55.2268,304.8842,0,U,66151,999,3641,.99503E-3,.33393E-3,0
STARLINK-35455,2025-240G,2026-06-11T18:54:52.133760,15.34402190,.0001014,53.1595,344.4455,94.5908,265.5210,0,U,66152,999,3641,.626E-3,.20835E-3,0
STARLINK-34752,2025-240H,2026-06-11T16:26:40.719264,15.34427321,.0001631,53.1595,345.2223,91.7396,268.3794,0,U,66153,999,3639,.90319E-3,.30289E-3,0
STARLINK-34625,2025-240J,2026-06-11T18:51:14.697792,15.30203680,.0001012,53.1612,345.8426,106.0820,254.0293,0,U,66154,999,3644,.86175E-3,.25253E-3,0
STARLINK-35580,2025-240K,2026-06-11T16:50:46.474656,15.34400655,.0001039,53.1606,344.6152,105.6041,254.5076,0,U,66155,999,3640,.92956E-3,.31162E-3,0
STARLINK-35621,2025-240L,2026-06-11T19:10:59.959776,15.30212709,.0000602,53.1599,345.9283,97.8292,262.2778,0,U,66156,999,3639,.68271E-3,.19923E-3,0
STARLINK-35594,2025-240M,2026-06-11T17:48:20.502144,15.34401496,.0001062,53.1598,344.8591,100.0462,260.0660,0,U,66157,999,3640,.80705E-3,.26991E-3,0
STARLINK-35587,2025-240N,2026-06-11T18:48:12.523392,15.30210295,.0001088,53.1604,345.8299,97.2825,262.8300,0,U,66158,999,3639,.69919E-3,.20412E-3,0
STARLINK-35586,2025-240P,2026-06-11T16:44:50.849664,15.34392940,.0001442,53.1608,345.2968,78.3774,281.7391,0,U,66159,999,3639,.81576E-3,.2728E-3,0
STARLINK-35636,2025-240Q,2026-06-11T17:38:28.349376,15.30209100,.0001182,53.1609,346.2393,84.2170,275.8965,0,U,66160,999,3638,.74201E-3,.21687E-3,0
STARLINK-35635,2025-240R,2026-06-11T18:49:43.684896,15.30206884,.0001186,53.1603,345.8347,125.3975,234.7136,0,U,66161,999,3639,.74707E-3,.21837E-3,0
STARLINK-35633,2025-240S,2026-06-11T16:51:21.540960,15.30205985,.0001159,53.1620,346.0200,94.4867,265.6266,0,U,66162,999,3638,.93867E-3,.2755E-3,0
STARLINK-35607,2025-240T,2026-06-11T17:18:02.660832,15.34401581,.0001151,53.1599,344.7190,40.7872,319.3217,0,U,66163,999,3640,.88226E-3,.29551E-3,0
STARLINK-35614,2025-240U,2026-06-11T19:16:04.379808,15.34401684,.0001428,53.1599,344.5271,132.5255,227.5869,0,U,66164,999,3641,.75864E-3,.25344E-3,0
STARLINK-35575,2025-240V,2026-06-11T19:06:59.328864,15.34396536,.0001028,53.1592,344.4821,84.0806,276.0314,0,U,66165,999,3641,.93327E-3,.31284E-3,0
STARLINK-35624,2025-240W,2026-06-11T18:39:43.236000,15.34381074,.0000947,53.1604,344.3634,69.0231,291.0873,0,U,66166,999,3641,.60034E-3,.19949E-3,0
STARLINK-35641,2025-240X,2026-06-11T19:13:02.534592,15.34401869,.0000957,53.1598,344.5035,100.4966,259.6145,0,U,66167,999,3641,.78152E-3,.26122E-3,0
STARLINK-35578,2025-240Y,2026-06-11T18:33:01.482048,15.30177110,.0001497,53.1620,345.7451,130.4069,229.7062,0,U,66168,999,3639,.3455E-3,.988E-4,0
STARLINK-35638,2025-240Z,2026-06-11T18:55:47.905824,15.30198767,.0001279,53.1602,345.8493,60.2080,299.9047,0,U,66169,999,3639,.82654E-3,.24199E-3,0
STARLINK-35585,2025-240AA,2026-06-11T19:19:05.912256,15.34398479,.0000986,53.1586,344.5338,81.8336,278.2779,0,U,66170,999,3641,-.22247E-4,-.1128E-4,0
STARLINK-35606,2025-240AB,2026-06-11T18:42:45.030240,15.34392158,.0001026,53.1607,344.3725,56.3492,303.7608,0,U,66171,999,3641,.8566E-3,.28669E-3,0
STARLINK-35627,2025-240AC,2026-06-11T18:42:07.981920,15.30204677,.0001,53.1613,345.7868,92.9544,267.1571,0,U,66172,999,3639,.62474E-3,.18192E-3,0
STARLINK-35634,2025-240AD,2026-06-11T17:27:07.968384,15.34398691,.0001041,53.1590,344.7557,64.1165,295.9945,0,U,66173,999,3640,.83203E-3,.27838E-3,0
STARLINK-35363,2025-243B,2026-06-11T07:04:24.520800,15.30195885,.0001264,53.1582,170.5734,77.2793,282.8349,0,U,66178,999,3498,.65688E-3,.19143E-3,0
STARLINK-35346,2025-243C,2026-06-11T20:00:01.999008,15.34367528,.000078,53.1602,167.9555,75.3085,71.8673,0,U,66179,999,586,.14313E-2,.48245E-3,0
STARLINK-35335,2025-243D,2026-06-11T07:13:31.566720,15.30193526,.0001361,53.1571,170.6104,88.8723,271.2434,0,U,66180,999,3498,.64287E-3,.18725E-3,0
STARLINK-35342,2025-243E,2026-06-11T07:16:33.686688,15.30202693,.0001119,53.1563,170.6227,111.1469,248.9651,0,U,66181,999,3498,.61081E-3,.17776E-3,0
STARLINK-35333,2025-243F,2026-06-11T11:59:50.459712,15.33505491,.0001274,53.1575,169.7205,134.2003,225.9104,0,U,66182,999,3501,.21735E-2,.71695E-3,0
STARLINK-35310,2025-243G,2026-06-11T06:54:22.811328,15.34396533,.0001354,53.1607,170.5304,89.7801,270.3356,0,U,66183,999,3498,.46877E-3,.15493E-3,0
