STARLINK-35605          
1 66150U 25240E   26162.77609215  .00027866  00000+0  94950-3 0  9993
2 66150  53.1613 345.7793 0000795 104.5575 255.5514 15.30198131 36395
STARLINK-35540          
1 66151U 25240F   26162.78389863  .00033393  00000+0  99503-3 0  9990
2 66151  53.1597 344.4114 0001145  55.2268 304.8842 15.34401080 36410
STARLINK-35455          
1 66152U 25240G   26162.78810340  .00020835  00000+0  62600-3 0  9995
2 66152  53.1595 344.4455 0001014  94.5908 265.5210 15.34402190 36414
STARLINK-34752          
1 66153U 25240H   26162.68519351  .00030289  00000+0  90319-3 0  9995
2 66153  53.1595 345.2223 0001631  91.7396 268.3794 15.34427321 36390
STARLINK-34625          
1 66154U 25240J   26162.78558678  .00025253  00000+0  86175-3 0  9992
2 66154  53.1612 345.8426 0001012 106.0820 254.0293 15.30203680 36445
STARLINK-35580          
1 66155U 25240K   26162.70192679  .00031162  00000+0  92956-3 0  9990
2 66155  53.1606 344.6152 0001039 105.6041 254.5076 15.34400655 36406
STARLINK-35621          
1 66156U 25240L   26162.79930509  .00019923  00000+0  68271-3 0  9996
2 66156  53.1599 345.9283 0000602  97.8292 262.2778 15.30212709 36392
STARLINK-35594          
1 66157U 25240M   26162.74190396  .00026991  00000+0  80705-3 0  9993
2 66157  53.1598 344.8591 0001062 100.0462 260.0660 15.34401496 36404
STARLINK-35587          
1 66158U 25240N   26162.78347828  .00020412  00000+0  69919-3 0  9998
2 66158  53.1604 345.8299 0001088  97.2825 262.8300 15.30210295 36397
STARLINK-35586          
1 66159U 25240P   26162.69781076  .00027280  00000+0  81576-3 0  9999
2 66159  53.1608 345.2968 0001442  78.3774 281.7391 15.34392940 36398
STARLINK-35636          
1 66160U 25240Q   26162.73505034  .00021687  00000+0  74201-3 0  9996
2 66160  53.1609 346.2393 0001182  84.2170 275.8965 15.30209100 36382
STARLINK-35635          
1 66161U 25240R   26162.78453339  .00021837  00000+0  74707-3 0  9990
2 66161  53.1603 345.8347 0001186 125.3975 234.7136 15.30206884 36396
STARLINK-35633          
1 66162U 25240S   26162.70233265  .00027550  00000+0  93867-3 0  9993
2 66162  53.1620 346.0200 0001159  94.4867 265.6266 15.30205985 36380
STARLINK-35607          
1 66163U 25240T   26162.72086413  .00029551  00000+0  88226-3 0  9993
2 66163  53.1599 344.7190 0001151  40.7872 319.3217 15.34401581 36401
STARLINK-35614          
1 66164U 25240U   26162.80282847  .00025344  00000+0  75864-3 0  9992
2 66164  53.1599 344.5271 0001428 132.5255 227.5869 15.34401684 36410
STARLINK-35575          
1 66165U 25240V   26162.79652001  .00031284  00000+0  93327-3 0  9998
2 66165  53.1592 344.4821 0001028  84.0806 276.0314 15.34396536 36416
STARLINK-35624          
1 66166U 25240W   26162.77758375  .00019949  00000+0  60034-3 0  9991
2 66166  53.1604 344.3634 0000947  69.0231 291.0873 15.34381074 36414
STARLINK-35641          
1 66167U 25240X   26162.80072378  .00026122  00000+0  78152-3 0  9999
2 66167  53.1598 344.5035 0000957 100.4966 259.6145 15.34401869 36417
STARLINK-35578          
1 66168U 25240Y   26162.77293382  .00009880  00000+0  34550-3 0  9992
2 66168  53.1620 345.7451 0001497 130.4069 229.7062 15.30177110 36394
STARLINK-35638          
1 66169U 25240Z   26162.78874891  .00024199  00000+0  82654-3 0  9992
2 66169  53.1602 345.8493 0001279  60.2080 299.9047 15.30198767 36396
STARLINK-35585          
1 66170U 25240AA  26162.80492954 -.00001128  00000+0 -22247-4 0  9995
2 66170  53.1586 344.5338 0000986  81.8336 278.2779 15.34398479 36411
STARLINK-35606          
1 66171U 25240AB  26162.77968785  .00028669  00000+0  85660-3 0  9996
2 66171  53.1607 344.3725 0001026  56.3492 303.7608 15.34392158 36413
STARLINK-35627          
1 66172U 25240AC  26162.77925905  .00018192  00000+0  62474-3 0  9992
2 66172  53.1613 345.7868 0001000  92.9544 267.1571 15.30204677 36393
STARLINK-35634          
1 66173U 25240AD  26162.72717556  .00027838  00000+0  83203-3 0  9999
2 66173  53.1590 344.7557 0001041  64.1165 295.9945 15.34398691 36407
STARLINK-35363          
1 66178U 25243B   26162.29472825  .00019143  00000+0  65688-3 0  9993
2 66178  53.1582 170.5734 0001264  77.2793 282.8349 15.30195885 34984
STARLINK-35346          
1 66179U 25243C   26162.83335647  .00048245  00000+0  14313-2 0  9997
2 66179  53.1602 167.9555 0000780  75.3085  71.8673 15.34367528  5864
STARLINK-35335          
1 66180U 25243D   26162.30105980  .00018725  00000+0  64287-3 0  9992
2 66180  53.1571 170.6104 0001361  88.8723 271.2434 15.30193526 34983
STARLINK-35342          
1 66181U 25243E   26162.30316767  .00017776  00000+0  61081-3 0  9994
2 66181  53.1563 170.6227 0001119 111.1469 248.9651 15.30202693 34987
STARLINK-35333          
1 66182U 25243F   26162.49988958  .00071695  00000+0  21735-2 0  9993
2 66182  53.1575 169.7205 0001274 134.2003 225.9104 15.33505491 35016
STARLINK-35310          
1 66183U 25243G   26162.28776402  .00015493  00000+0  46877-3 0  9999
2 66183  53.1607 170.5304 0001354  89.7801 270.3356 15.34396533 34986
